OBJECT_NAME,OBJECT_ID,EPOCH,MEAN_MOTION,ECCENTRICITY,INCLINATION,RA_OF_ASC_NODE,ARG_OF_PERICENTER,MEAN_ANOMALY,EPHEMERIS_TYPE,CLASSIFICATION_TYPE,NORAD_CAT_ID,ELEMENT_SET_NO,REV_AT_EPOCH,BSTAR,MEAN_MOTION_DOT,MEAN_MOTION_DDOT
STARLINK-5655,2023-013F,2026-06-19T10:32:28.119840,15.27563856,.00010151,43.0039,74.0643,257.5692,102.5046,0,U,55336,999,18740,.10489755E-3,.2624E-4,0
STARLINK-5667,2023-013G,2026-06-19T01:50:05.538336,15.27578992,.00016311,43.0044,76.5464,265.5731,94.4935,0,U,55337,999,18734,.38917026E-4,.809E-5,0
STARLINK-5658,2023-013H,2026-06-19T03:03:11.344032,15.27580308,.0001311,43.0012,90.8302,261.3710,98.6993,0,U,55338,999,18718,-.13218349E-4,-.626E-5,0
STARLINK-5671,2023-013J,2026-06-19T02:55:04.714176,15.27575659,.00013089,43.0072,94.1999,271.3130,88.7571,0,U,55339,999,18714,.17090046E-4,.208E-5,0
STARLINK-5675,2023-013K,2026-06-19T11:30:45.847584,15.27574134,.00011174,43.0039,88.3185,265.4882,94.5842,0,U,55340,999,18724,.8031049E-5,-.41E-6,0
STARLINK-5670,2023-013L,2026-06-19T03:06:53.250336,15.27576603,.00010534,43.0007,90.8477,253.6966,106.3770,0,U,55341,999,18718,.12550714E-4,.83E-6,0
STARLINK-5657,2023-013M,2026-06-19T11:03:13.146912,15.27579548,.0001279,43.0020,89.0276,266.6182,93.4523,0,U,55342,999,18723,.10566711E-4,.29E-6,0
STARLINK-5661,2023-013N,2026-06-19T11:15:57.808512,15.27579034,.00010072,43.0002,88.2416,261.6362,98.4376,0,U,55343,999,18724,.3712887E-5,-.16E-5,0
STARLINK-5653,2023-013Q,2026-06-19T11:03:56.010816,15.27574942,.00019285,43.0086,74.2952,260.2315,99.8320,0,U,55345,999,18740,.35185877E-4,.706E-5,0
STARLINK-5631,2023-013R,2026-06-19T11:21:30.705984,15.27576787,.00009974,43.0024,88.2622,263.5163,96.5575,0,U,55346,999,18724,.14785248E-4,.145E-5,0
STARLINK-5663,2023-013S,2026-06-19T11:19:39.827136,15.27575802,.00007312,43.0004,88.2574,258.0679,102.0090,0,U,55347,999,18724,.4647408E-5,-.134E-5,0
STARLINK-5609,2023-013T,2026-06-19T11:36:20.318400,15.27564009,.00006919,43.0039,88.3388,268.7955,91.2817,0,U,55348,999,18724,-.41520855E-4,-.1404E-4,0
STARLINK-5666,2023-013U,2026-06-19T11:41:51.757440,15.27576986,.00013231,43.0061,88.3718,262.9859,97.0842,0,U,55349,999,18724,.393716E-5,-.154E-5,0
STARLINK-5668,2023-013V,2026-06-19T11:14:06.595296,15.27575712,.00009477,43.0018,88.2238,258.4834,101.5912,0,U,55350,999,18724,.12811613E-4,.91E-6,0
STARLINK-5659,2023-013W,2026-06-18T23:01:13.126944,15.27573730,.00010184,43.0043,91.2807,267.5232,92.5503,0,U,55351,999,18716,.37857466E-4,.78E-5,0
STARLINK-5547,2023-013X,2026-06-19T02:32:26.311776,15.27579559,.00013831,43.0046,87.2591,266.0606,94.0088,0,U,55352,999,18722,.27189713E-4,.486E-5,0
STARLINK-5608,2023-013Y,2026-06-19T11:31:28.202592,15.27576290,.00012669,43.0079,84.9035,252.2249,107.8464,0,U,55353,999,18728,.298119E-6,-.254E-5,0
STARLINK-5649,2023-013Z,2026-06-19T11:28:54.880608,15.27566863,.00012134,43.0036,88.3046,264.1103,95.9611,0,U,55354,999,18724,-.79948272E-4,-.246E-4,0
STARLINK-5647,2023-013AA,2026-06-19T11:51:03.178656,15.27652927,.00018826,43.0164,88.3941,266.1250,93.9386,0,U,55355,999,18723,.11442666E-3,.2894E-4,0
STARLINK-5651,2023-013AC,2026-06-19T11:45:33.715584,15.27571667,.00014924,43.0068,88.3818,268.7040,91.3640,0,U,55357,999,18724,-.22336747E-4,-.877E-5,0
STARLINK-5622,2023-013AD,2026-06-19T11:40:00.704064,15.27577892,.00015065,43.0044,88.3595,274.3911,85.6769,0,U,55358,999,18724,.5593337E-5,-.108E-5,0
STARLINK-5641,2023-013AE,2026-06-19T11:59:39.365952,15.27578635,.00014759,43.0085,91.8705,260.9789,99.0896,0,U,55359,999,18720,.7407048E-5,-.58E-6,0
STARLINK-5664,2023-013AF,2026-06-19T03:55:10.943040,15.27584058,.00013058,43.0040,108.3389,274.3380,85.7322,0,U,55360,999,18698,.57075757E-4,.1309E-4,0
STARLINK-5665,2023-013AG,2026-06-19T10:12:08.096544,15.27577672,.00008925,43.0030,74.0468,243.9843,116.0917,0,U,55361,999,18740,.1780089E-4,.228E-5,0
STARLINK-5574,2023-013AH,2026-06-19T10:02:52.897920,15.27588292,.00012623,43.0020,74.0039,268.4602,91.6105,0,U,55362,999,18740,-.28680646E-4,-.1051E-4,0
STARLINK-5627,2023-013AK,2026-06-19T11:54:06.235200,15.27577632,.00014141,43.0051,91.8443,268.1100,91.9590,0,U,55364,999,18720,.11682262E-4,.59E-6,0
STARLINK-5639,2023-013AL,2026-06-19T13:09:01.476000,15.27571417,.00013714,43.0075,106.0728,278.4046,81.6650,0,U,55365,999,18704,-.73598367E-4,-.2286E-4,0
STARLINK-5654,2023-013AM,2026-06-19T02:06:33.874848,15.27572683,.00011085,43.0033,75.8219,272.1144,87.9581,0,U,55366,999,18735,.10086698E-4,.15E-6,0
STARLINK-5635,2023-013AN,2026-06-19T10:49:08.130720,15.27576189,.00016664,43.0025,74.2330,264.8595,95.2067,0,U,55367,999,18740,.11712035E-4,.6E-6,0
STARLINK-5625,2023-013AP,2026-06-19T10:01:02.034624,15.27588311,.00013778,43.0022,73.9932,264.9282,95.1413,0,U,55368,999,18740,.25837875E-4,.449E-5,0
