STARLINK-5655           
1 55336U 23013F   26170.43921435  .00002624  00000+0  10490-3 0  9998
2 55336  43.0039  74.0643 0001015 257.5692 102.5046 15.27563856187406
STARLINK-5667           
1 55337U 23013G   26170.07645299  .00000809  00000+0  38917-4 0  9998
2 55337  43.0044  76.5464 0001631 265.5731  94.4935 15.27578992187344
STARLINK-5658           
1 55338U 23013H   26170.12721463 -.00000626  00000+0 -13218-4 0  9999
2 55338  43.0012  90.8302 0001311 261.3710  98.6993 15.27580308187182
STARLINK-5671           
1 55339U 23013J   26170.12158234  .00000208  00000+0  17090-4 0  9996
2 55339  43.0072  94.1999 0001308 271.3130  88.7571 15.27575659187142
STARLINK-5675           
1 55340U 23013K   26170.47969731 -.00000041  00000+0  80310-5 0  9990
2 55340  43.0039  88.3185 0001117 265.4882  94.5842 15.27574134187249
STARLINK-5670           
1 55341U 23013L   26170.12978299  .00000083  00000+0  12551-4 0  9998
2 55341  43.0007  90.8477 0001053 253.6966 106.3770 15.27576603187186
STARLINK-5657           
1 55342U 23013M   26170.46056883  .00000029  00000+0  10567-4 0  9997
2 55342  43.0020  89.0276 0001279 266.6182  93.4523 15.27579548187232
STARLINK-5661           
1 55343U 23013N   26170.46941908 -.00000160  00000+0  37129-5 0  9990
2 55343  43.0002  88.2416 0001007 261.6362  98.4376 15.27579034187246
STARLINK-5653           
1 55345U 23013Q   26170.46106494  .00000706  00000+0  35186-4 0  9990
2 55345  43.0086  74.2952 0001928 260.2315  99.8320 15.27574942187400
STARLINK-5631           
1 55346U 23013R   26170.47327206  .00000145  00000+0  14785-4 0  9997
2 55346  43.0024  88.2622 0000997 263.5163  96.5575 15.27576787187241
STARLINK-5663           
1 55347U 23013S   26170.47198874 -.00000134  00000+0  46474-5 0  9995
2 55347  43.0004  88.2574 0000731 258.0679 102.0090 15.27575802187245
STARLINK-5609           
1 55348U 23013T   26170.48356850 -.00001404  00000+0 -41521-4 0  9996
2 55348  43.0039  88.3388 0000691 268.7955  91.2817 15.27564009187241
STARLINK-5666           
1 55349U 23013U   26170.48740460 -.00000154  00000+0  39372-5 0  9993
2 55349  43.0061  88.3718 0001323 262.9859  97.0842 15.27576986187245
STARLINK-5668           
1 55350U 23013V   26170.46813189  .00000091  00000+0  12812-4 0  9990
2 55350  43.0018  88.2238 0000947 258.4834 101.5912 15.27575712187244
STARLINK-5659           
1 55351U 23013W   26169.95917971  .00000780  00000+0  37857-4 0  9998
2 55351  43.0043  91.2807 0001018 267.5232  92.5503 15.27573730187166
STARLINK-5547           
1 55352U 23013X   26170.10586009  .00000486  00000+0  27190-4 0  9994
2 55352  43.0046  87.2591 0001383 266.0606  94.0088 15.27579559187226
STARLINK-5608           
1 55353U 23013Y   26170.48018753 -.00000254  00000+0  29812-6 0  9991
2 55353  43.0079  84.9035 0001266 252.2249 107.8464 15.27576290187286
STARLINK-5649           
1 55354U 23013Z   26170.47841297 -.00002460  00000+0 -79948-4 0  9993
2 55354  43.0036  88.3046 0001213 264.1103  95.9611 15.27566863187245
STARLINK-5647           
1 55355U 23013AA  26170.49378679  .00002894  00000+0  11443-3 0  9999
2 55355  43.0164  88.3941 0001882 266.1250  93.9386 15.27652927187232
STARLINK-5651           
1 55357U 23013AC  26170.48997356 -.00000877  00000+0 -22337-4 0  9995
2 55357  43.0068  88.3818 0001492 268.7040  91.3640 15.27571667187249
STARLINK-5622           
1 55358U 23013AD  26170.48611926 -.00000108  00000+0  55933-5 0  9997
2 55358  43.0044  88.3595 0001506 274.3911  85.6769 15.27577892187246
STARLINK-5641           
1 55359U 23013AE  26170.49976118 -.00000058  00000+0  74070-5 0  9993
2 55359  43.0085  91.8705 0001475 260.9789  99.0896 15.27578635187205
STARLINK-5664           
1 55360U 23013AF  26170.16332110  .00001309  00000+0  57076-4 0  9992
2 55360  43.0040 108.3389 0001305 274.3380  85.7322 15.27584058186984
STARLINK-5665           
1 55361U 23013AG  26170.42509371  .00000228  00000+0  17801-4 0  9998
2 55361  43.0030  74.0468 0000892 243.9843 116.0917 15.27577672187407
STARLINK-5574           
1 55362U 23013AH  26170.41866780 -.00001051  00000+0 -28681-4 0  9993
2 55362  43.0020  74.0039 0001262 268.4602  91.6105 15.27588292187405
STARLINK-5627           
1 55364U 23013AK  26170.49590550  .00000059  00000+0  11682-4 0  9990
2 55364  43.0051  91.8443 0001414 268.1100  91.9590 15.27577632187201
STARLINK-5639           
1 55365U 23013AL  26170.54793375 -.00002286  00000+0 -73598-4 0  9997
2 55365  43.0075 106.0728 0001371 278.4046  81.6650 15.27571417187048
STARLINK-5654           
1 55366U 23013AM  26170.08789207  .00000015  00000+0  10087-4 0  9996
2 55366  43.0033  75.8219 0001108 272.1144  87.9581 15.27572683187351
STARLINK-5635           
1 55367U 23013AN  26170.45078855  .00000060  00000+0  11712-4 0  9994
2 55367  43.0025  74.2330 0001666 264.8595  95.2067 15.27576189187409
STARLINK-5625           
1 55368U 23013AP  26170.41738466  .00000449  00000+0  25838-4 0  9997
2 55368  43.0022  73.9932 0001377 264.9282  95.1413 15.27588311187408
